CCSDS_OMM_VERS = 2.0
CREATION_DATE  = 
ORIGINATOR     = 

OBJECT_NAME    = TITAN 4B R/B
OBJECT_ID      = 2000-047B
CENTER_NAME    = EARTH
REF_FRAME      = TEME
TIME_SYSTEM    = UTC
MEAN_ELEMENT_THEORY = SGP/SGP4

EPOCH          = 2026-03-31T03:54:15.660000
MEAN_MOTION    = 15.09761940
ECCENTRICITY   = .0039935
INCLINATION    = 67.9915
RA_OF_ASC_NODE = 340.1224
ARG_OF_PERICENTER = 10.2132
MEAN_ANOMALY   = 349.9819

EPHEMERIS_TYPE = 0
CLASSIFICATION_TYPE = U
NORAD_CAT_ID   = 26474
ELEMENT_SET_NO = 999
REV_AT_EPOCH   = 39615
BSTAR          = .29732E-3
MEAN_MOTION_DOT = .4767E-4
MEAN_MOTION_DDOT = 0

CCSDS_OMM_VERS = 2.0
CREATION_DATE  = 
ORIGINATOR     = 

OBJECT_NAME    = ENVISAT
OBJECT_ID      = 2002-009A
CENTER_NAME    = EARTH
REF_FRAME      = TEME
TIME_SYSTEM    = UTC
MEAN_ELEMENT_THEORY = SGP/SGP4

EPOCH          = 2026-03-31T03:46:15.699360
MEAN_MOTION    = 14.39044482
ECCENTRICITY   = .0001221
INCLINATION    = 98.3763
RA_OF_ASC_NODE = 43.2480
ARG_OF_PERICENTER = 82.0521
MEAN_ANOMALY   = 289.8812

EPHEMERIS_TYPE = 0
CLASSIFICATION_TYPE = U
NORAD_CAT_ID   = 27386
ELEMENT_SET_NO = 999
REV_AT_EPOCH   = 26226
BSTAR          = .6256E-4
MEAN_MOTION_DOT = .15E-5
MEAN_MOTION_DDOT = 0

CCSDS_OMM_VERS = 2.0
CREATION_DATE  = 
ORIGINATOR     = 

OBJECT_NAME    = IDEFIX & ARIANE 42P R/B
OBJECT_ID      = 2002-021B
CENTER_NAME    = EARTH
REF_FRAME      = TEME
TIME_SYSTEM    = UTC
MEAN_ELEMENT_THEORY = SGP/SGP4

EPOCH          = 2026-03-31T02:25:28.269696
MEAN_MOTION    = 14.31040615
ECCENTRICITY   = .0012675
INCLINATION    = 98.5896
RA_OF_ASC_NODE = 28.4546
ARG_OF_PERICENTER = 121.3231
MEAN_ANOMALY   = 238.9194

EPHEMERIS_TYPE = 0
CLASSIFICATION_TYPE = U
NORAD_CAT_ID   = 27422
ELEMENT_SET_NO = 999
REV_AT_EPOCH   = 24708
BSTAR          = .13928E-3
MEAN_MOTION_DOT = .323E-5
MEAN_MOTION_DDOT = 0

CCSDS_OMM_VERS = 2.0
CREATION_DATE  = 
ORIGINATOR     = 

OBJECT_NAME    = AQUA
OBJECT_ID      = 2002-022A
CENTER_NAME    = EARTH
REF_FRAME      = TEME
TIME_SYSTEM    = UTC
MEAN_ELEMENT_THEORY = SGP/SGP4

EPOCH          = 2026-03-31T04:19:28.589664
MEAN_MOTION    = 14.62026828
ECCENTRICITY   = .0001232
INCLINATION    = 98.4210
RA_OF_ASC_NODE = 57.9425
ARG_OF_PERICENTER = 117.3056
MEAN_ANOMALY   = 332.9303

EPHEMERIS_TYPE = 0
CLASSIFICATION_TYPE = U
NORAD_CAT_ID   = 27424
ELEMENT_SET_NO = 999
REV_AT_EPOCH   = 27187
BSTAR          = .27645E-3
MEAN_MOTION_DOT = .1338E-4
MEAN_MOTION_DDOT = 0

CCSDS_OMM_VERS = 2.0
CREATION_DATE  = 
ORIGINATOR     = 

OBJECT_NAME    = CZ-4B R/B
OBJECT_ID      = 2002-024C
CENTER_NAME    = EARTH
REF_FRAME      = TEME
TIME_SYSTEM    = UTC
MEAN_ELEMENT_THEORY = SGP/SGP4

EPOCH          = 2026-03-31T03:37:25.205952
MEAN_MOTION    = 14.14551466
ECCENTRICITY   = .004942
INCLINATION    = 98.8792
RA_OF_ASC_NODE = 143.4451
ARG_OF_PERICENTER = 323.0173
MEAN_ANOMALY   = 97.0961

EPHEMERIS_TYPE = 0
CLASSIFICATION_TYPE = U
NORAD_CAT_ID   = 27432
ELEMENT_SET_NO = 999
REV_AT_EPOCH   = 23227
BSTAR          = .52028E-4
MEAN_MOTION_DOT = .56E-6
MEAN_MOTION_DDOT = 0

CCSDS_OMM_VERS = 2.0
CREATION_DATE  = 
ORIGINATOR     = 

OBJECT_NAME    = MIDORI II (ADEOS-II)
OBJECT_ID      = 2002-056A
CENTER_NAME    = EARTH
REF_FRAME      = TEME
TIME_SYSTEM    = UTC
MEAN_ELEMENT_THEORY = SGP/SGP4

EPOCH          = 2026-03-31T03:43:14.884032
MEAN_MOTION    = 14.29301538
ECCENTRICITY   = .0000617
INCLINATION    = 98.7806
RA_OF_ASC_NODE = 48.7860
ARG_OF_PERICENTER = 20.2110
MEAN_ANOMALY   = 339.9095

EPHEMERIS_TYPE = 0
CLASSIFICATION_TYPE = U
NORAD_CAT_ID   = 27597
ELEMENT_SET_NO = 999
REV_AT_EPOCH   = 21336
BSTAR          = .17273E-3
MEAN_MOTION_DOT = .394E-5
MEAN_MOTION_DDOT = 0

CCSDS_OMM_VERS = 2.0
CREATION_DATE  = 
ORIGINATOR     = 

OBJECT_NAME    = H-2A R/B
OBJECT_ID      = 2002-056E
CENTER_NAME    = EARTH
REF_FRAME      = TEME
TIME_SYSTEM    = UTC
MEAN_ELEMENT_THEORY = SGP/SGP4

EPOCH          = 2026-03-31T02:56:08.563776
MEAN_MOTION    = 14.33775496
ECCENTRICITY   = .0071402
INCLINATION    = 98.3239
RA_OF_ASC_NODE = 49.6767
ARG_OF_PERICENTER = 97.5732
MEAN_ANOMALY   = 274.5937

EPHEMERIS_TYPE = 0
CLASSIFICATION_TYPE = U
NORAD_CAT_ID   = 27601
ELEMENT_SET_NO = 999
REV_AT_EPOCH   = 21718
BSTAR          = .15272E-3
MEAN_MOTION_DOT = .396E-5
MEAN_MOTION_DDOT = 0

CCSDS_OMM_VERS = 2.0
CREATION_DATE  = 
ORIGINATOR     = 

OBJECT_NAME    = CZ-4B R/B
OBJECT_ID      = 2003-049C
CENTER_NAME    = EARTH
REF_FRAME      = TEME
TIME_SYSTEM    = UTC
MEAN_ELEMENT_THEORY = SGP/SGP4

EPOCH          = 2026-03-30T23:26:11.348736
MEAN_MOTION    = 14.55039582
ECCENTRICITY   = .0048409
INCLINATION    = 98.6893
RA_OF_ASC_NODE = 85.7196
ARG_OF_PERICENTER = 165.4310
MEAN_ANOMALY   = 194.8294

EPHEMERIS_TYPE = 0
CLASSIFICATION_TYPE = U
NORAD_CAT_ID   = 28059
ELEMENT_SET_NO = 999
REV_AT_EPOCH   = 18969
BSTAR          = .11978E-3
MEAN_MOTION_DOT = .473E-5
MEAN_MOTION_DDOT = 0

CCSDS_OMM_VERS = 2.0
CREATION_DATE  = 
ORIGINATOR     = 

OBJECT_NAME    = CZ-2C R/B
OBJECT_ID      = 2004-012C
CENTER_NAME    = EARTH
REF_FRAME      = TEME
TIME_SYSTEM    = UTC
MEAN_ELEMENT_THEORY = SGP/SGP4

EPOCH          = 2026-03-31T03:29:59.913312
MEAN_MOTION    = 15.67204291
ECCENTRICITY   = .0013444
INCLINATION    = 97.7178
RA_OF_ASC_NODE = 157.5086
ARG_OF_PERICENTER = 224.2126
MEAN_ANOMALY   = 135.8060

EPHEMERIS_TYPE = 0
CLASSIFICATION_TYPE = U
NORAD_CAT_ID   = 28222
ELEMENT_SET_NO = 999
REV_AT_EPOCH   = 20763
BSTAR          = .73084E-3
MEAN_MOTION_DOT = .79102E-3
MEAN_MOTION_DDOT = 0

CCSDS_OMM_VERS = 2.0
CREATION_DATE  = 
ORIGINATOR     = 

OBJECT_NAME    = SL-16 R/B
OBJECT_ID      = 2004-021B
CENTER_NAME    = EARTH
REF_FRAME      = TEME
TIME_SYSTEM    = UTC
MEAN_ELEMENT_THEORY = SGP/SGP4

EPOCH          = 2026-03-31T00:35:06.674784
MEAN_MOTION    = 14.14596354
ECCENTRICITY   = .0005109
INCLINATION    = 71.0010
RA_OF_ASC_NODE = 187.7211
ARG_OF_PERICENTER = 343.4558
MEAN_ANOMALY   = 16.6397

EPHEMERIS_TYPE = 0
CLASSIFICATION_TYPE = U
NORAD_CAT_ID   = 28353
ELEMENT_SET_NO = 999
REV_AT_EPOCH   = 12585
BSTAR          = .17816E-3
MEAN_MOTION_DOT = .295E-5
MEAN_MOTION_DDOT = 0

CCSDS_OMM_VERS = 2.0
CREATION_DATE  = 
ORIGINATOR     = 

OBJECT_NAME    = CZ-4B R/B
OBJECT_ID      = 2004-035C
CENTER_NAME    = EARTH
REF_FRAME      = TEME
TIME_SYSTEM    = UTC
MEAN_ELEMENT_THEORY = SGP/SGP4

EPOCH          = 2026-03-31T01:03:47.252160
MEAN_MOTION    = 15.29440059
ECCENTRICITY   = .0030087
INCLINATION    = 97.3463
RA_OF_ASC_NODE = 124.0322
ARG_OF_PERICENTER = 251.5751
MEAN_ANOMALY   = 108.2218

EPHEMERIS_TYPE = 0
CLASSIFICATION_TYPE = U
NORAD_CAT_ID   = 28415
ELEMENT_SET_NO = 999
REV_AT_EPOCH   = 18317
BSTAR          = .39985E-3
MEAN_MOTION_DOT = .11498E-3
MEAN_MOTION_DDOT = 0

CCSDS_OMM_VERS = 2.0
CREATION_DATE  = 
ORIGINATOR     = 

OBJECT_NAME    = CZ-2C R/B
OBJECT_ID      = 2004-046B
CENTER_NAME    = EARTH
REF_FRAME      = TEME
TIME_SYSTEM    = UTC
MEAN_ELEMENT_THEORY = SGP/SGP4

EPOCH          = 2026-03-31T00:17:05.955936
MEAN_MOTION    = 14.27000020
ECCENTRICITY   = .0140606
INCLINATION    = 98.1978
RA_OF_ASC_NODE = 3.6673
ARG_OF_PERICENTER = 91.8044
MEAN_ANOMALY   = 269.9248

EPHEMERIS_TYPE = 0
CLASSIFICATION_TYPE = U
NORAD_CAT_ID   = 28480
ELEMENT_SET_NO = 999
REV_AT_EPOCH   = 11154
BSTAR          = .88885E-4
MEAN_MOTION_DOT = .2E-5
MEAN_MOTION_DDOT = 0

CCSDS_OMM_VERS = 2.0
CREATION_DATE  = 
ORIGINATOR     = 

OBJECT_NAME    = ARIANE 5 R/B
OBJECT_ID      = 2004-049H
CENTER_NAME    = EARTH
REF_FRAME      = TEME
TIME_SYSTEM    = UTC
MEAN_ELEMENT_THEORY = SGP/SGP4

EPOCH          = 2026-03-30T23:42:57.246912
MEAN_MOTION    = 14.85305727
ECCENTRICITY   = .0082889
INCLINATION    = 98.2658
RA_OF_ASC_NODE = 259.2473
ARG_OF_PERICENTER = 282.2328
MEAN_ANOMALY   = 76.9613

EPHEMERIS_TYPE = 0
CLASSIFICATION_TYPE = U
NORAD_CAT_ID   = 28499
ELEMENT_SET_NO = 999
REV_AT_EPOCH   = 14895
BSTAR          = .13187E-3
MEAN_MOTION_DOT = .1139E-4
MEAN_MOTION_DDOT = 0

CCSDS_OMM_VERS = 2.0
CREATION_DATE  = 
ORIGINATOR     = 

OBJECT_NAME    = CZ-2D R/B
OBJECT_ID      = 2005-024B
CENTER_NAME    = EARTH
REF_FRAME      = TEME
TIME_SYSTEM    = UTC
MEAN_ELEMENT_THEORY = SGP/SGP4

EPOCH          = 2026-03-30T23:46:05.953152
MEAN_MOTION    = 15.62137798
ECCENTRICITY   = .000203
INCLINATION    = 97.3573
RA_OF_ASC_NODE = 105.9467
ARG_OF_PERICENTER = 319.7810
MEAN_ANOMALY   = 40.3297

EPHEMERIS_TYPE = 0
CLASSIFICATION_TYPE = U
NORAD_CAT_ID   = 28738
ELEMENT_SET_NO = 999
REV_AT_EPOCH   = 14310
BSTAR          = .64118E-3
MEAN_MOTION_DOT = .5639E-3
MEAN_MOTION_DDOT = 0

CCSDS_OMM_VERS = 2.0
CREATION_DATE  = 
ORIGINATOR     = 

OBJECT_NAME    = ALOS (DAICHI)
OBJECT_ID      = 2006-002A
CENTER_NAME    = EARTH
REF_FRAME      = TEME
TIME_SYSTEM    = UTC
MEAN_ELEMENT_THEORY = SGP/SGP4

EPOCH          = 2026-03-31T03:37:16.427712
MEAN_MOTION    = 14.69876597
ECCENTRICITY   = .0000921
INCLINATION    = 98.1252
RA_OF_ASC_NODE = 46.0045
ARG_OF_PERICENTER = 110.3823
MEAN_ANOMALY   = 249.7482

EPHEMERIS_TYPE = 0
CLASSIFICATION_TYPE = U
NORAD_CAT_ID   = 28931
ELEMENT_SET_NO = 999
REV_AT_EPOCH   = 7663
BSTAR          = .30019E-3
MEAN_MOTION_DOT = .1746E-4
MEAN_MOTION_DDOT = 0

